[{"OBJECT_NAME":"ASTROCAST-0103","OBJECT_ID":"2021-006CC","EPOCH":"2026-03-09T16:48:48.818592","MEAN_MOTION":15.73114428,"ECCENTRICITY":0.00057063,"INCLINATION":97.2627,"RA_OF_ASC_NODE":138.0845,"ARG_OF_PERICENTER":147.86,"MEAN_ANOMALY":212.3013,"EPHEMERIS_TYPE":0,"CLASSIFICATION_TYPE":"U","NORAD_CAT_ID":47487,"ELEMENT_SET_NO":999,"REV_AT_EPOCH":28552,"BSTAR":0.00063759595,"MEAN_MOTION_DOT":0.00087857,"MEAN_MOTION_DDOT":0},{"OBJECT_NAME":"STARLINK-11531 [DTC]","OBJECT_ID":"2025-019N","EPOCH":"2026-03-09T02:00:09.851040","MEAN_MOTION":15.70868913,"ECCENTRICITY":0.00024771,"INCLINATION":42.9988,"RA_OF_ASC_NODE":309.7909,"ARG_OF_PERICENTER":247.0626,"MEAN_ANOMALY":112.9981,"EPHEMERIS_TYPE":0,"CLASSIFICATION_TYPE":"U","NORAD_CAT_ID":62841,"ELEMENT_SET_NO":999,"REV_AT_EPOCH":6378,"BSTAR":0.0012164441,"MEAN_MOTION_DOT":0.00158858,"MEAN_MOTION_DDOT":0}]
