ASTROCAST-0103          
1 47487U 21006CC  26068.70056502  .00087857  00000+0  63760-3 0  9995
2 47487  97.2627 138.0845 0005706 147.8600 212.3013 15.73114428285528
STARLINK-11531 [DTC]    
1 62841U 25019N   26068.08344735  .00158858  00000+0  12164-2 0  9994
2 62841  42.9988 309.7909 0002477 247.0626 112.9981 15.70868913 63780
